[{"OBJECT_NAME":"STARLINK-1775","OBJECT_ID":"2020-073M","EPOCH":"2026-03-10T00:00:02.999808","MEAN_MOTION":15.77531204,"ECCENTRICITY":7.989e-5,"INCLINATION":53.0433,"RA_OF_ASC_NODE":208.9003,"ARG_OF_PERICENTER":71.2079,"MEAN_ANOMALY":262.2455,"EPHEMERIS_TYPE":0,"CLASSIFICATION_TYPE":"U","NORAD_CAT_ID":46681,"ELEMENT_SET_NO":999,"REV_AT_EPOCH":597,"BSTAR":0.00064069936,"MEAN_MOTION_DOT":0.00109421,"MEAN_MOTION_DDOT":0},{"OBJECT_NAME":"STARLINK-36344","OBJECT_ID":"2026-025T","EPOCH":"2026-03-09T19:23:36.301920","MEAN_MOTION":15.75352511,"ECCENTRICITY":0.00023733,"INCLINATION":97.2844,"RA_OF_ASC_NODE":180.4676,"ARG_OF_PERICENTER":35.9158,"MEAN_ANOMALY":324.2266,"EPHEMERIS_TYPE":0,"CLASSIFICATION_TYPE":"U","NORAD_CAT_ID":67710,"ELEMENT_SET_NO":999,"REV_AT_EPOCH":597,"BSTAR":0.0026124454,"MEAN_MOTION_DOT":0.00411803,"MEAN_MOTION_DDOT":0}]
